start=new Date('2022-12-22T00:00:00.000Z').valueOf();
sats=[{"MEAN_ELEMENT_THEORY":"SGP4","EPHEMERIS_TYPE":"0","MEAN_ANOMALY":"323.9056","PERIOD":"95.593","ECCENTRICITY":"0.00023260","MEAN_MOTION_DDOT":"0.0000000000000","GP_ID":"221084688","MEAN_MOTION":"15.06384045","NORAD_CAT_ID":"48435","EPOCH":"2022-12-21T11:53:35.626272","RCS_SIZE":"LARGE","CLASSIFICATION_TYPE":"U","TIME_SYSTEM":"UTC","RA_OF_ASC_NODE":"37.8036","ARG_OF_PERICENTER":"36.2090","MEAN_MOTION_DOT":"-0.00002189","ELEMENT_SET_NO":"999","REF_FRAME":"TEME","DECAY_DATE":null,"COUNTRY_CODE":"US","APOAPSIS":"548.873","PERIAPSIS":"545.652","BSTAR":"-0.00012812000000","TLE_LINE1":"1 48435U 21040H   22355.49555123 -.00002189  00000-0 -12812-3 0  9991","REV_AT_EPOCH":"9113","LAUNCH_DATE":"2021-05-09","OBJECT_TYPE":"PAYLOAD","INCLINATION":"53.0561","SEMIMAJOR_AXIS":"6925.397","OBJECT_ID":"2021-040H","SITE":"AFETR","OBJECT_NAME":"STARLINK-2633","TLE_LINE2":"2 48435  53.0561  37.8036 0002326  36.2090 323.9056 15.06384045 91134","FILE":"3716037","CENTER_NAME":"EARTH"},{"TLE_LINE2":"2 48436  53.0543  53.1329 0002167  31.5936 328.5183 15.06396943 89635","FILE":"3716551","CENTER_NAME":"EARTH","INCLINATION":"53.0543","SEMIMAJOR_AXIS":"6925.358","OBJECT_ID":"2021-040J","SITE":"AFETR","OBJECT_NAME":"STARLINK-2639","PERIAPSIS":"545.722","BSTAR":"-0.00005551500000","TLE_LINE1":"1 48436U 21040J   22355.41859503 -.00001109  00000-0 -55515-4 0  9992","REV_AT_EPOCH":"8963","OBJECT_TYPE":"PAYLOAD","LAUNCH_DATE":"2021-05-09","COUNTRY_CODE":"US","APOAPSIS":"548.724","TIME_SYSTEM":"UTC","ARG_OF_PERICENTER":"31.5936","RA_OF_ASC_NODE":"53.1329","MEAN_MOTION_DOT":"-0.00001109","ELEMENT_SET_NO":"999","DECAY_DATE":null,"REF_FRAME":"TEME","NORAD_CAT_ID":"48436","EPOCH":"2022-12-21T10:02:46.610592","RCS_SIZE":"LARGE","CLASSIFICATION_TYPE":"U","ECCENTRICITY":"0.00021670","MEAN_MOTION_DDOT":"0.0000000000000","GP_ID":"221117447","MEAN_MOTION":"15.06396943","MEAN_ELEMENT_THEORY":"SGP4","EPHEMERIS_TYPE":"0","MEAN_ANOMALY":"328.5183","PERIOD":"95.592"},{"REV_AT_EPOCH":"9078","OBJECT_TYPE":"PAYLOAD","LAUNCH_DATE":"2021-05-09","PERIAPSIS":"545.651","TLE_LINE1":"1 48437U 21040K   22355.46927511 -.00001653  00000-0 -92114-4 0  9993","BSTAR":"-0.00009211400000","COUNTRY_CODE":"US","APOAPSIS":"548.811","FILE":"3716037","CENTER_NAME":"EARTH","TLE_LINE2":"2 48437  53.0573  62.9136 0002281  39.2951 320.8204 15.06394303 90787","OBJECT_ID":"2021-040K","OBJECT_NAME":"STARLINK-2642","SITE":"AFETR","INCLINATION":"53.0573","SEMIMAJOR_AXIS":"6925.366","ECCENTRICITY":"0.00022810","MEAN_MOTION":"15.06394303","GP_ID":"221084690","MEAN_MOTION_DDOT":"0.0000000000000","MEAN_ANOMALY":"320.8204","PERIOD":"95.593","EPHEMERIS_TYPE":"0","MEAN_ELEMENT_THEORY":"SGP4","DECAY_DATE":null,"REF_FRAME":"TEME","ELEMENT_SET_NO":"999","TIME_SYSTEM":"UTC","MEAN_MOTION_DOT":"-0.00001653","ARG_OF_PERICENTER":"39.2951","RA_OF_ASC_NODE":"62.9136","CLASSIFICATION_TYPE":"U","RCS_SIZE":"LARGE","NORAD_CAT_ID":"48437","EPOCH":"2022-12-21T11:15:45.369504"},{"ECCENTRICITY":"0.00020790","MEAN_MOTION_DDOT":"0.0000000000000","MEAN_MOTION":"15.06393340","GP_ID":"221115946","MEAN_ELEMENT_THEORY":"SGP4","EPHEMERIS_TYPE":"0","MEAN_ANOMALY":"316.3621","PERIOD":"95.593","TIME_SYSTEM":"UTC","ARG_OF_PERICENTER":"43.7532","RA_OF_ASC_NODE":"53.1405","MEAN_MOTION_DOT":"0.00004923","ELEMENT_SET_NO":"999","REF_FRAME":"TEME","DECAY_DATE":null,"NORAD_CAT_ID":"48438","EPOCH":"2022-12-21T09:57:29.224512","RCS_SIZE":"LARGE","CLASSIFICATION_TYPE":"U","PERIAPSIS":"545.794","BSTAR":"0.00034921000000","TLE_LINE1":"1 48438U 21040L   22355.41492158  .00004923  00000-0  34921-3 0  9995","REV_AT_EPOCH":"8963","LAUNCH_DATE":"2021-05-09","OBJECT_TYPE":"PAYLOAD","COUNTRY_CODE":"US","APOAPSIS":"548.674","TLE_LINE2":"2 48438  53.0549  53.1405 0002079  43.7532 316.3621 15.06393340 89637","FILE":"3716551","CENTER_NAME":"EARTH","INCLINATION":"53.0549","SEMIMAJOR_AXIS":"6925.369","OBJECT_ID":"2021-040L","SITE":"AFETR","OBJECT_NAME":"STARLINK-2640"},{"GP_ID":"221116196","MEAN_MOTION":"15.06395397","MEAN_MOTION_DDOT":"0.0000000000000","ECCENTRICITY":"0.00021230","PERIOD":"95.592","MEAN_ANOMALY":"319.8219","EPHEMERIS_TYPE":"0","MEAN_ELEMENT_THEORY":"SGP4","DECAY_DATE":null,"REF_FRAME":"TEME","ELEMENT_SET_NO":"999","MEAN_MOTION_DOT":"-0.00002105","ARG_OF_PERICENTER":"40.2927","RA_OF_ASC_NODE":"52.8546","TIME_SYSTEM":"UTC","CLASSIFICATION_TYPE":"U","RCS_SIZE":"LARGE","EPOCH":"2022-12-21T11:27:41.524416","NORAD_CAT_ID":"48439","LAUNCH_DATE":"2021-05-09","OBJECT_TYPE":"PAYLOAD","REV_AT_EPOCH":"8964","TLE_LINE1":"1 48439U 21040M   22355.47756394 -.00002105  00000-0 -12245-3 0  9994","BSTAR":"-0.00012245000000","PERIAPSIS":"545.757","APOAPSIS":"548.698","COUNTRY_CODE":"US","CENTER_NAME":"EARTH","FILE":"3716551","TLE_LINE2":"2 48439  53.0539  52.8546 0002123  40.2927 319.8219 15.06395397 89645","OBJECT_NAME":"STARLINK-2583","SITE":"AFETR","OBJECT_ID":"2021-040M","SEMIMAJOR_AXIS":"6925.363","INCLINATION":"53.0539"},{"NORAD_CAT_ID":"48440","EPOCH":"2022-12-21T12:57:54.812736","RCS_SIZE":"LARGE","CLASSIFICATION_TYPE":"U","TIME_SYSTEM":"UTC","RA_OF_ASC_NODE":"52.5734","ARG_OF_PERICENTER":"29.9187","MEAN_MOTION_DOT":"-0.00005455","ELEMENT_SET_NO":"999","DECAY_DATE":null,"REF_FRAME":"TEME","MEAN_ELEMENT_THEORY":"SGP4","EPHEMERIS_TYPE":"0","MEAN_ANOMALY":"330.1943","PERIOD":"95.592","ECCENTRICITY":"0.00024820","MEAN_MOTION_DDOT":"0.0000000000000","MEAN_MOTION":"15.06395972","GP_ID":"221116948","INCLINATION":"53.0542","SEMIMAJOR_AXIS":"6925.361","OBJECT_ID":"2021-040N","SITE":"AFETR","OBJECT_NAME":"STARLINK-2682","TLE_LINE2":"2 48440  53.0542  52.5734 0002482  29.9187 330.1943 15.06395972 89657","FILE":"3716551","CENTER_NAME":"EARTH","COUNTRY_CODE":"US","APOAPSIS":"548.945","PERIAPSIS":"545.507","BSTAR":"-0.00034756000000","TLE_LINE1":"1 48440U 21040N   22355.54021774 -.00005455  00000-0 -34756-3 0  9993","REV_AT_EPOCH":"8965","LAUNCH_DATE":"2021-05-09","OBJECT_TYPE":"PAYLOAD"},{"ECCENTRICITY":"0.00019110","MEAN_MOTION":"15.06387144","GP_ID":"221085196","MEAN_MOTION_DDOT":"0.0000000000000","EPHEMERIS_TYPE":"0","MEAN_ELEMENT_THEORY":"SGP4","MEAN_ANOMALY":"322.2027","PERIOD":"95.593","TIME_SYSTEM":"UTC","MEAN_MOTION_DOT":"-0.00002833","ARG_OF_PERICENTER":"37.9096","RA_OF_ASC_NODE":"52.5855","DECAY_DATE":null,"REF_FRAME":"TEME","ELEMENT_SET_NO":"999","NORAD_CAT_ID":"48441","EPOCH":"2022-12-21T12:52:37.259040","CLASSIFICATION_TYPE":"U","RCS_SIZE":"LARGE","PERIAPSIS":"545.930","TLE_LINE1":"1 48441U 21040P   22355.53654235 -.00002833  00000-0 -17144-3 0  9996","BSTAR":"-0.00017144000000","REV_AT_EPOCH":"9093","LAUNCH_DATE":"2021-05-09","OBJECT_TYPE":"PAYLOAD","COUNTRY_CODE":"US","APOAPSIS":"548.576","TLE_LINE2":"2 48441  53.0554  52.5855 0001911  37.9096 322.2027 15.06387144 90939","FILE":"3716038","CENTER_NAME":"EARTH","INCLINATION":"53.0554","SEMIMAJOR_AXIS":"6925.388","OBJECT_ID":"2021-040P","OBJECT_NAME":"STARLINK-2702","SITE":"AFETR"},{"PERIOD":"95.593","MEAN_ANOMALY":"318.6896","EPHEMERIS_TYPE":"0","MEAN_ELEMENT_THEORY":"SGP4","MEAN_MOTION":"15.06380917","GP_ID":"221129145","MEAN_MOTION_DDOT":"0.0000000000000","ECCENTRICITY":"0.00020790","CLASSIFICATION_TYPE":"U","RCS_SIZE":"LARGE","EPOCH":"2022-12-21T14:22:52.303872","NORAD_CAT_ID":"48442","DECAY_DATE":null,"REF_FRAME":"TEME","ELEMENT_SET_NO":"999","MEAN_MOTION_DOT":"-0.00003105","ARG_OF_PERICENTER":"41.4250","RA_OF_ASC_NODE":"52.3282","TIME_SYSTEM":"UTC","APOAPSIS":"548.712","COUNTRY_CODE":"US","OBJECT_TYPE":"PAYLOAD","LAUNCH_DATE":"2021-05-09","REV_AT_EPOCH":"9094","TLE_LINE1":"1 48442U 21040Q   22355.59921648 -.00003105  00000-0 -18972-3 0  9991","BSTAR":"-0.00018972000000","PERIAPSIS":"545.832","OBJECT_NAME":"STARLINK-2644","SITE":"AFETR","OBJECT_ID":"2021-040Q","SEMIMAJOR_AXIS":"6925.407","INCLINATION":"53.0562","CENTER_NAME":"EARTH","FILE":"3717025","TLE_LINE2":"2 48442  53.0562  52.3282 0002079  41.4250 318.6896 15.06380917 90944"},{"INCLINATION":"53.0540","SEMIMAJOR_AXIS":"6925.377","OBJECT_ID":"2021-040R","OBJECT_NAME":"STARLINK-2663","SITE":"AFETR","TLE_LINE2":"2 48443  53.0540  52.9340 0001861  47.4146 312.7000 15.06390789 89645","FILE":"3716551","CENTER_NAME":"EARTH","COUNTRY_CODE":"US","APOAPSIS":"548.531","PERIAPSIS":"545.953","TLE_LINE1":"1 48443U 21040R   22355.46282790 -.00000867  00000-0 -39320-4 0  9999","BSTAR":"-0.00003932000000","REV_AT_EPOCH":"8964","LAUNCH_DATE":"2021-05-09","OBJECT_TYPE":"PAYLOAD","NORAD_CAT_ID":"48443","EPOCH":"2022-12-21T11:06:28.330560","CLASSIFICATION_TYPE":"U","RCS_SIZE":"LARGE","TIME_SYSTEM":"UTC","MEAN_MOTION_DOT":"-0.00000867","ARG_OF_PERICENTER":"47.4146","RA_OF_ASC_NODE":"52.9340","REF_FRAME":"TEME","DECAY_DATE":null,"ELEMENT_SET_NO":"999","EPHEMERIS_TYPE":"0","MEAN_ELEMENT_THEORY":"SGP4","MEAN_ANOMALY":"312.7000","PERIOD":"95.593","ECCENTRICITY":"0.00018610","GP_ID":"221116696","MEAN_MOTION":"15.06390789","MEAN_MOTION_DDOT":"0.0000000000000"},{"APOAPSIS":"548.444","COUNTRY_CODE":"US","BSTAR":"0.00011387000000","TLE_LINE1":"1 48444U 21040S   22355.52549863  .00001415  00000-0  11387-3 0  9994","PERIAPSIS":"546.023","OBJECT_TYPE":"PAYLOAD","LAUNCH_DATE":"2021-05-09","REV_AT_EPOCH":"9093","SEMIMAJOR_AXIS":"6925.369","INCLINATION":"53.0532","SITE":"AFETR","OBJECT_NAME":"STARLINK-2645","OBJECT_ID":"2021-040S","TLE_LINE2":"2 48444  53.0532  52.6564 0001748  61.8933 298.2232 15.06393392 90932","CENTER_NAME":"EARTH","FILE":"3717025","MEAN_ELEMENT_THEORY":"SGP4","EPHEMERIS_TYPE":"0","PERIOD":"95.593","MEAN_ANOMALY":"298.2232","MEAN_MOTION_DDOT":"0.0000000000000","GP_ID":"221129473","MEAN_MOTION":"15.06393392","ECCENTRICITY":"0.00017480","EPOCH":"2022-12-21T12:36:43.081632","NORAD_CAT_ID":"48444","RCS_SIZE":"LARGE","CLASSIFICATION_TYPE":"U","ARG_OF_PERICENTER":"61.8933","RA_OF_ASC_NODE":"52.6564","MEAN_MOTION_DOT":"0.00001415","TIME_SYSTEM":"UTC","ELEMENT_SET_NO":"999","DECAY_DATE":null,"REF_FRAME":"TEME"}];
